[{"COMMENT":"GENERATED VIA SPACETRACK.ORG API","ORIGINATOR":"18 SPCS","NORAD_CAT_ID":"43476","OBJECT_NAME":"GRACE-FO 1","OBJECT_TYPE":"PAYLOAD","CLASSIFICATION_TYPE":"U","INTLDES":"18047A","EPOCH":"2024-01-07 11:51:50","EPOCH_MICROSECONDS":"590656","MEAN_MOTION":"15.27785943","ECCENTRICITY":"0.0012359","INCLINATION":"88.9836","RA_OF_ASC_NODE":"321.3297","ARG_OF_PERICENTER":"345.11","MEAN_ANOMALY":"14.9784","EPHEMERIS_TYPE":"0","ELEMENT_SET_NO":"999","REV_AT_EPOCH":"31317","BSTAR":"0.0001381","MEAN_MOTION_DOT":"0.00003782","MEAN_MOTION_DDOT":"0","FILE":"4155650","TLE_LINE0":"0 GRACE-FO 1","TLE_LINE1":"1 43476U 18047A   24007.49433554  .00003782  00000-0  13810-3 0  9990","TLE_LINE2":"2 43476  88.9836 321.3297 0012359 345.1100  14.9784 15.27785943313178","OBJECT_ID":"2018-047A","OBJECT_NUMBER":"43476","SEMIMAJOR_AXIS":"6860.569","PERIOD":"94.254","APOGEE":"490.913","PERIGEE":"473.956","DECAYED":"0"},{"COMMENT":"GENERATED VIA SPACETRACK.ORG API","ORIGINATOR":"18 SPCS","NORAD_CAT_ID":"43476","OBJECT_NAME":"GRACE-FO 1","OBJECT_TYPE":"PAYLOAD","CLASSIFICATION_TYPE":"U","INTLDES":"18047A","EPOCH":"2024-01-07 13:26:09","EPOCH_MICROSECONDS":"785472","MEAN_MOTION":"15.27786895","ECCENTRICITY":"0.0012345","INCLINATION":"88.9836","RA_OF_ASC_NODE":"321.3208","ARG_OF_PERICENTER":"344.8488","MEAN_ANOMALY":"15.239","EPHEMERIS_TYPE":"0","ELEMENT_SET_NO":"999","REV_AT_EPOCH":"31318","BSTAR":"0.00014725","MEAN_MOTION_DOT":"0.0000403","MEAN_MOTION_DDOT":"0","FILE":"4155883","TLE_LINE0":"0 GRACE-FO 1","TLE_LINE1":"1 43476U 18047A   24007.55983548  .00004030  00000-0  14725-3 0  9993","TLE_LINE2":"2 43476  88.9836 321.3208 0012345 344.8488  15.2390 15.27786895313185","OBJECT_ID":"2018-047A","OBJECT_NUMBER":"43476","SEMIMAJOR_AXIS":"6860.567","PERIOD":"94.254","APOGEE":"490.901","PERIGEE":"473.962","DECAYED":"0"},{"COMMENT":"GENERATED VIA SPACETRACK.ORG API","ORIGINATOR":"18 SPCS","NORAD_CAT_ID":"43476","OBJECT_NAME":"GRACE-FO 1","OBJECT_TYPE":"PAYLOAD","CLASSIFICATION_TYPE":"U","INTLDES":"18047A","EPOCH":"2024-01-07 21:17:45","EPOCH_MICROSECONDS":"730176","MEAN_MOTION":"15.27789199","ECCENTRICITY":"0.0012286","INCLINATION":"88.9836","RA_OF_ASC_NODE":"321.2759","ARG_OF_PERICENTER":"343.514","MEAN_ANOMALY":"16.5708","EPHEMERIS_TYPE":"0","ELEMENT_SET_NO":"999","REV_AT_EPOCH":"31323","BSTAR":"0.00014358","MEAN_MOTION_DOT":"0.00003931","MEAN_MOTION_DDOT":"0","FILE":"4156156","TLE_LINE0":"0 GRACE-FO 1","TLE_LINE1":"1 43476U 18047A   24007.88733484  .00003931  00000-0  14358-3 0  9992","TLE_LINE2":"2 43476  88.9836 321.2759 0012286 343.5140  16.5708 15.27789199313233","OBJECT_ID":"2018-047A","OBJECT_NUMBER":"43476","SEMIMAJOR_AXIS":"6860.560","PERIOD":"94.254","APOGEE":"490.854","PERIGEE":"473.996","DECAYED":"0"},{"COMMENT":"GENERATED VIA SPACETRACK.ORG API","ORIGINATOR":"18 SPCS","NORAD_CAT_ID":"43476","OBJECT_NAME":"GRACE-FO 1","OBJECT_TYPE":"PAYLOAD","CLASSIFICATION_TYPE":"U","INTLDES":"18047A","EPOCH":"2024-01-08 14:35:16","EPOCH_MICROSECONDS":"655424","MEAN_MOTION":"15.27795159","ECCENTRICITY":"0.0012146","INCLINATION":"88.9837","RA_OF_ASC_NODE":"321.1772","ARG_OF_PERICENTER":"340.553","MEAN_ANOMALY":"19.5255","EPHEMERIS_TYPE":"0","ELEMENT_SET_NO":"999","REV_AT_EPOCH":"31334","BSTAR":"0.0001543","MEAN_MOTION_DOT":"0.00004223","MEAN_MOTION_DDOT":"0","FILE":"4156666","TLE_LINE0":"0 GRACE-FO 1","TLE_LINE1":"1 43476U 18047A   24008.60783166  .00004223  00000-0  15430-3 0  9992","TLE_LINE2":"2 43476  88.9837 321.1772 0012146 340.5530  19.5255 15.27795159313348","OBJECT_ID":"2018-047A","OBJECT_NUMBER":"43476","SEMIMAJOR_AXIS":"6860.542","PERIOD":"94.253","APOGEE":"490.740","PERIGEE":"474.074","DECAYED":"0"},{"COMMENT":"GENERATED VIA SPACETRACK.ORG API","ORIGINATOR":"18 SPCS","NORAD_CAT_ID":"43476","OBJECT_NAME":"GRACE-FO 1","OBJECT_TYPE":"PAYLOAD","CLASSIFICATION_TYPE":"U","INTLDES":"18047A","EPOCH":"2024-01-08 19:18:14","EPOCH_MICROSECONDS":"134464","MEAN_MOTION":"15.27796895","ECCENTRICITY":"0.0012108","INCLINATION":"88.9838","RA_OF_ASC_NODE":"321.1503","ARG_OF_PERICENTER":"339.7281","MEAN_ANOMALY":"20.3486","EPHEMERIS_TYPE":"0","ELEMENT_SET_NO":"999","REV_AT_EPOCH":"31337","BSTAR":"0.00015572","MEAN_MOTION_DOT":"0.00004261","MEAN_MOTION_DDOT":"0","FILE":"4156694","TLE_LINE0":"0 GRACE-FO 1","TLE_LINE1":"1 43476U 18047A   24008.80433026  .00004261  00000-0  15572-3 0  9990","TLE_LINE2":"2 43476  88.9838 321.1503 0012108 339.7281  20.3486 15.27796895313379","OBJECT_ID":"2018-047A","OBJECT_NUMBER":"43476","SEMIMAJOR_AXIS":"6860.537","PERIOD":"94.253","APOGEE":"490.708","PERIGEE":"474.095","DECAYED":"0"},{"COMMENT":"GENERATED VIA SPACETRACK.ORG API","ORIGINATOR":"18 SPCS","NORAD_CAT_ID":"43476","OBJECT_NAME":"GRACE-FO 1","OBJECT_TYPE":"PAYLOAD","CLASSIFICATION_TYPE":"U","INTLDES":"18047A","EPOCH":"2024-01-08 22:26:52","EPOCH_MICROSECONDS":"429920","MEAN_MOTION":"15.27798271","ECCENTRICITY":"0.0012087","INCLINATION":"88.9838","RA_OF_ASC_NODE":"321.1324","ARG_OF_PERICENTER":"339.1941","MEAN_ANOMALY":"20.8815","EPHEMERIS_TYPE":"0","ELEMENT_SET_NO":"999","REV_AT_EPOCH":"31339","BSTAR":"0.00015908","MEAN_MOTION_DOT":"0.00004353","MEAN_MOTION_DDOT":"0","FILE":"4156930","TLE_LINE0":"0 GRACE-FO 1","TLE_LINE1":"1 43476U 18047A   24008.93532905  .00004353  00000-0  15908-3 0  9995","TLE_LINE2":"2 43476  88.9838 321.1324 0012087 339.1941  20.8815 15.27798271313396","OBJECT_ID":"2018-047A","OBJECT_NUMBER":"43476","SEMIMAJOR_AXIS":"6860.533","PERIOD":"94.253","APOGEE":"490.690","PERIGEE":"474.105","DECAYED":"0"},{"COMMENT":"GENERATED VIA SPACETRACK.ORG API","ORIGINATOR":"18 SPCS","NORAD_CAT_ID":"43476","OBJECT_NAME":"GRACE-FO 1","OBJECT_TYPE":"PAYLOAD","CLASSIFICATION_TYPE":"U","INTLDES":"18047A","EPOCH":"2024-01-09 14:10:03","EPOCH_MICROSECONDS":"830304","MEAN_MOTION":"15.27804407","ECCENTRICITY":"0.0011955","INCLINATION":"88.984","RA_OF_ASC_NODE":"321.0427","ARG_OF_PERICENTER":"336.4216","MEAN_ANOMALY":"23.6484","EPHEMERIS_TYPE":"0","ELEMENT_SET_NO":"999","REV_AT_EPOCH":"31349","BSTAR":"0.00016931","MEAN_MOTION_DOT":"0.00004631","MEAN_MOTION_DDOT":"0","FILE":"4157515","TLE_LINE0":"0 GRACE-FO 1","TLE_LINE1":"1 43476U 18047A   24009.59032211  .00004631  00000-0  16931-3 0  9999","TLE_LINE2":"2 43476  88.9840 321.0427 0011955 336.4216  23.6484 15.27804407313493","OBJECT_ID":"2018-047A","OBJECT_NUMBER":"43476","SEMIMAJOR_AXIS":"6860.514","PERIOD":"94.253","APOGEE":"490.581","PERIGEE":"474.177","DECAYED":"0"},{"COMMENT":"GENERATED VIA SPACETRACK.ORG API","ORIGINATOR":"18 SPCS","NORAD_CAT_ID":"43476","OBJECT_NAME":"GRACE-FO 1","OBJECT_TYPE":"PAYLOAD","CLASSIFICATION_TYPE":"U","INTLDES":"18047A","EPOCH":"2024-01-09 20:27:20","EPOCH_MICROSECONDS":"320128","MEAN_MOTION":"15.2780689","ECCENTRICITY":"0.0011891","INCLINATION":"88.9841","RA_OF_ASC_NODE":"321.007","ARG_OF_PERICENTER":"335.2591","MEAN_ANOMALY":"24.8087","EPHEMERIS_TYPE":"0","ELEMENT_SET_NO":"999","REV_AT_EPOCH":"31353","BSTAR":"0.00016865","MEAN_MOTION_DOT":"0.00004614","MEAN_MOTION_DDOT":"0","FILE":"4157582","TLE_LINE0":"0 GRACE-FO 1","TLE_LINE1":"1 43476U 18047A   24009.85231852  .00004614  00000-0  16865-3 0  9997","TLE_LINE2":"2 43476  88.9841 321.0070 0011891 335.2591  24.8087 15.27806890313535","OBJECT_ID":"2018-047A","OBJECT_NUMBER":"43476","SEMIMAJOR_AXIS":"6860.507","PERIOD":"94.253","APOGEE":"490.530","PERIGEE":"474.214","DECAYED":"0"},{"COMMENT":"GENERATED VIA SPACETRACK.ORG API","ORIGINATOR":"18 SPCS","NORAD_CAT_ID":"43476","OBJECT_NAME":"GRACE-FO 1","OBJECT_TYPE":"PAYLOAD","CLASSIFICATION_TYPE":"U","INTLDES":"18047A","EPOCH":"2024-01-09 22:01:39","EPOCH_MICROSECONDS":"435456","MEAN_MOTION":"15.27807468","ECCENTRICITY":"0.0011876","INCLINATION":"88.9841","RA_OF_ASC_NODE":"320.998","ARG_OF_PERICENTER":"334.9606","MEAN_ANOMALY":"25.1066","EPHEMERIS_TYPE":"0","ELEMENT_SET_NO":"999","REV_AT_EPOCH":"31354","BSTAR":"0.00016863","MEAN_MOTION_DOT":"0.00004613","MEAN_MOTION_DDOT":"0","FILE":"4157773","TLE_LINE0":"0 GRACE-FO 1","TLE_LINE1":"1 43476U 18047A   24009.91781754  .00004613  00000-0  16863-3 0  9992","TLE_LINE2":"2 43476  88.9841 320.9980 0011876 334.9606  25.1066 15.27807468313543","OBJECT_ID":"2018-047A","OBJECT_NUMBER":"43476","SEMIMAJOR_AXIS":"6860.505","PERIOD":"94.253","APOGEE":"490.518","PERIGEE":"474.223","DECAYED":"0"},{"COMMENT":"GENERATED VIA SPACETRACK.ORG API","ORIGINATOR":"18 SPCS","NORAD_CAT_ID":"43476","OBJECT_NAME":"GRACE-FO 1","OBJECT_TYPE":"PAYLOAD","CLASSIFICATION_TYPE":"U","INTLDES":"18047A","EPOCH":"2024-01-10 10:36:12","EPOCH_MICROSECONDS":"306240","MEAN_MOTION":"15.27811906","ECCENTRICITY":"0.0011761","INCLINATION":"88.9843","RA_OF_ASC_NODE":"320.9263","ARG_OF_PERICENTER":"332.668","MEAN_ANOMALY":"27.3949","EPHEMERIS_TYPE":"0","ELEMENT_SET_NO":"999","REV_AT_EPOCH":"31362","BSTAR":"0.000163","MEAN_MOTION_DOT":"0.00004461","MEAN_MOTION_DDOT":"0","FILE":"4158336","TLE_LINE0":"0 GRACE-FO 1","TLE_LINE1":"1 43476U 18047A   24010.44180910  .00004461  00000-0  16300-3 0  9996","TLE_LINE2":"2 43476  88.9843 320.9263 0011761 332.6680  27.3949 15.27811906313624","OBJECT_ID":"2018-047A","OBJECT_NUMBER":"43476","SEMIMAJOR_AXIS":"6860.492","PERIOD":"94.252","APOGEE":"490.425","PERIGEE":"474.288","DECAYED":"0"}]